EPOCH,MEAN_MOTION,ECCENTRICITY,INCLINATION,RA_OF_ASC_NODE,ARG_OF_PERICENTER,MEAN_ANOMALY,NORAD_CAT_ID,SEMIMAJOR_AXIS,PERIOD,APOAPSIS,PERIAPSIS,OBJECT_TYPE,RCS_SIZE,COUNTRY_CODE,LAUNCH_DATE
1635742800.0,13.16608639,0.0001752,87.9201,204.7168,90.7458,328.6484,48990,7575.838,109.372,1199.031,1196.376,PAYLOAD,LARGE,UK,2021.0
1635721200.0,13.16587369,0.000195,87.9177,204.7624,84.0144,132.9176,48991,7575.92,109.374,1199.262,1196.308,PAYLOAD,LARGE,UK,2021.0
1635721200.0,13.16590821,0.0002011,87.9214,204.8026,92.1074,4.8945,48992,7575.907,109.373,1199.295,1196.248,PAYLOAD,LARGE,UK,2021.0
1635721200.0,13.16594305,0.0001747,87.9183,204.7796,90.5325,60.8942,48993,7575.893,109.373,1199.082,1196.435,PAYLOAD,LARGE,UK,2021.0
1635742800.0,13.16609111,0.0002189,87.919,204.7893,89.2762,2.8024,48994,7575.837,109.372,1199.36,1196.043,PAYLOAD,LARGE,UK,2021.0
1635742800.0,13.16605997,0.0002111,87.919,204.7895,98.8516,287.8941,48995,7575.849,109.372,1199.313,1196.114,PAYLOAD,LARGE,UK,2021.0
1635742800.0,13.16606764,0.0001965,87.9243,204.5886,82.7209,358.4927,48996,7575.846,109.372,1199.199,1196.222,PAYLOAD,LARGE,UK,2021.0
1635714001.0,13.16611866,0.0001837,87.9197,204.7693,70.3564,188.2638,48997,7575.826,109.372,1199.083,1196.299,PAYLOAD,LARGE,UK,2021.0
1635742800.0,13.16605856,0.0002259,87.9178,204.7415,107.7577,224.2835,48998,7575.849,109.372,1199.426,1196.003,PAYLOAD,LARGE,UK,2021.0
1635742800.0,13.1660266,0.000119,87.9185,204.6947,74.258,225.1101,48999,7575.861,109.372,1198.628,1196.825,PAYLOAD,LARGE,UK,2021.0
1635742800.0,13.16603532,0.0002262,87.9187,204.7663,88.3039,69.3638,49000,7575.858,109.372,1199.437,1196.009,PAYLOAD,LARGE,UK,2021.0
1635742800.0,13.16598474,0.0001928,87.9177,204.774,92.1326,120.1047,49001,7575.877,109.373,1199.203,1196.282,PAYLOAD,LARGE,UK,2021.0
1635742800.0,13.16602609,0.0002189,87.9212,204.7326,85.4997,159.43,49002,7575.862,109.372,1199.385,1196.068,PAYLOAD,LARGE,UK,2021.0
1635729169.0,15.09538547,0.0010919,97.5257,10.2256,211.1461,237.4822,49003,6915.746,95.393,545.162,530.06,TBA,LARGE,PRC,2021.0
1635741339.0,15.1027105,0.0011388,97.525,10.4741,228.1255,216.1677,49004,6913.51,95.347,543.248,527.502,TBA,MEDIUM,PRC,2021.0
1635731652.0,15.09952776,0.0011415,97.5255,10.3155,221.5549,196.2543,49005,6914.481,95.367,544.239,528.453,TBA,MEDIUM,PRC,2021.0
1635742294.0,15.10132627,0.001178,97.5247,10.4565,224.6045,220.3928,49006,6913.932,95.356,543.942,527.653,TBA,MEDIUM,PRC,2021.0
1635731089.0,15.10051344,0.0011697,97.5255,10.3196,222.501,195.4591,49007,6914.18,95.361,544.133,527.958,TBA,MEDIUM,PRC,2021.0
1635742964.0,14.19814236,0.0001213,98.707,305.8712,339.6762,20.4369,49008,7204.118,101.422,826.857,825.109,PAYLOAD,LARGE,PRC,2021.0
1635703878.0,15.2485265,0.0007814,51.6259,49.6691,358.5028,1.5925,49013,6869.365,94.435,496.598,485.862,PAYLOAD,MEDIUM,US,2021.0
1635723663.0,15.23957064,0.0010629,51.6271,48.8714,352.1878,7.8933,49014,6872.056,94.491,501.225,486.617,PAYLOAD,MEDIUM,US,2021.0
1635721054.0,15.24839966,0.0008987,51.6264,48.7389,3.2821,356.8215,49015,6869.403,94.436,497.442,485.094,PAYLOAD,MEDIUM,US,2021.0
1635687691.0,15.23326665,0.0006997,51.6107,51.4003,308.5761,51.4589,49016,6873.952,94.53,500.626,491.007,PAYLOAD,SMALL,UAE,2021.0
1635682301.0,15.23285559,0.0006764,51.6179,51.7625,308.5673,51.4698,49017,6874.075,94.533,500.59,491.291,PAYLOAD,SMALL,US,2021.0
1635732629.0,14.08050394,0.000696,45.0023,294.3218,66.0749,294.0812,49018,7244.188,102.269,871.095,861.011,PAYLOAD,MEDIUM,PRC,2021.0
1635737545.0,14.08041548,0.0006408,45.0033,293.9432,76.2676,283.8843,49019,7244.218,102.27,870.725,861.441,PAYLOAD,MEDIUM,PRC,2021.0
1635736302.0,14.08042281,0.0006771,44.9963,293.7817,80.2961,279.8645,49020,7244.216,102.27,870.986,861.176,PAYLOAD,MEDIUM,PRC,2021.0
1635728955.0,14.08036164,0.0007192,45.005,294.0862,87.547,272.6186,49021,7244.237,102.27,871.312,860.892,PAYLOAD,MEDIUM,PRC,2021.0
