ONEWEB-0272             
1 48990U 21060Z   21305.25001157 -.00008993  00000-0 -23576-1 0  9996
2 48990  87.9201 204.7168 0001752  90.7458 328.6484 13.16608639 18675
ONEWEB-0273             
1 48991U 21060AA  21305.00001157  .00005577  00000-0  14548-1 0  9992
2 48991  87.9177 204.7624 0001950  84.0144 132.9176 13.16587369  3318
ONEWEB-0274             
1 48992U 21060AB  21305.00001157  .00004995  00000-0  13025-1 0  9995
2 48992  87.9214 204.8026 0002011  92.1074   4.8945 13.16590821  3294
ONEWEB-0275             
1 48993U 21060AC  21305.00001157  .00004926  00000-0  12845-1 0  9999
2 48993  87.9183 204.7796 0001747  90.5325  60.8942 13.16594305  3312
ONEWEB-0276             
1 48994U 21060AD  21305.25001157 -.00010168  00000-0 -26656-1 0  9999
2 48994  87.9190 204.7893 0002189  89.2762   2.8024 13.16609111 18630
ONEWEB-0277             
1 48995U 21060AE  21305.25001157 -.00007710  00000-0 -20215-1 0  9994
2 48995  87.9190 204.7895 0002111  98.8516 287.8941 13.16605997 18610
ONEWEB-0278             
1 48996U 21060AF  21305.25001157 -.00010039  00000-0 -26318-1 0  9993
2 48996  87.9243 204.5886 0001965  82.7209 358.4927 13.16606764 18763
ONEWEB-0279             
1 48997U 21060AG  21304.91668981 -.00034361  00000-0 -90230-1 0  9998
2 48997  87.9197 204.7693 0001837  70.3564 188.2638 13.16611866  3306
ONEWEB-0280             
1 48998U 21060AH  21305.25001157 -.00006870  00000-0 -18015-1 0  9998
2 48998  87.9178 204.7415 0002259 107.7577 224.2835 13.16605856 18618
ONEWEB-0281             
1 48999U 21060AJ  21305.25001157 -.00007364  00000-0 -19311-1 0  9998
2 48999  87.9185 204.6947 0001190  74.2580 225.1101 13.16602660 18707
ONEWEB-0282             
1 49000U 21060AK  21305.25001157 -.00011470  00000-0 -30071-1 0  9991
2 49000  87.9187 204.7663 0002262  88.3039  69.3638 13.16603532 18684
ONEWEB-0283             
1 49001U 21060AL  21305.25001157 -.00010397  00000-0 -27259-1 0  9993
2 49001  87.9177 204.7740 0001928  92.1326 120.1047 13.16598474 18699
ONEWEB-0284             
1 49002U 21060AM  21305.25001157 -.00009238  00000-0 -24221-1 0  9992
2 49002  87.9212 204.7326 0002189  85.4997 159.4300 13.16602609 18669
2021-061A               
1 49003U 21061A   21305.09224449  .00000430  00000-0  30709-4 0  9991
2 49003  97.5257  10.2256 0010919 211.1461 237.4822 15.09538547 18256
2021-061B               
1 49004U 21061B   21305.23309941  .00001603  00000-0  10170-3 0  9991
2 49004  97.5250  10.4741 0011388 228.1255 216.1677 15.10271050 18270
2021-061C               
1 49005U 21061C   21305.12098315  .00002176  00000-0  13786-3 0  9992
2 49005  97.5255  10.3155 0011415 221.5549 196.2543 15.09952776 18266
2021-061D               
1 49006U 21061D   21305.24414353  .00001861  00000-0  11789-3 0  9991
2 49006  97.5247  10.4565 0011780 224.6045 220.3928 15.10132627 18278
2021-061E               
1 49007U 21061E   21305.11446380  .00002086  00000-0  13198-3 0  9999
2 49007  97.5255  10.3196 0011697 222.5010 195.4591 15.10051344 18255
FENGYUN 3E              
1 49008U 21062A   21305.25190884 -.00000016  00000-0  12965-4 0  9995
2 49008  98.7070 305.8712 0001213 339.6762  20.4369 14.19814236 16935
ORCA-7                  
1 49013U 21013C   21304.79952201  .00017993  00000-0  72545-3 0  9994
2 49013  51.6259  49.6691 0007814 358.5028   1.5925 15.24852650 18877
GUNSMOKE-J 2            
1 49014U 21013D   21305.02850704  .00007874  00000-0  33409-3 0  9990
2 49014  51.6271  48.8714 0010629 352.1878   7.8933 15.23957064 18872
ORCA-6                  
1 49015U 21013E   21304.99831353  .00018157  00000-0  73205-3 0  9999
2 49015  51.6264  48.7389 0008987   3.2821 356.8215 15.24839966 18879
DHABISAT (MYSAT-2)      
1 49016U 21013F   21304.61216722  .00005868  00000-0  25743-3 0  9995
2 49016  51.6107  51.4003 0006997 308.5761  51.4589 15.23326665 18938
IT-SPINS                
1 49017U 21013G   21304.54978392  .00005639  00000-0  24823-3 0  9990
2 49017  51.6179  51.7625 0006764 308.5673  51.4698 15.23285559 18864
NINGXIA-1 6             
1 49018U 21064A   21305.13228775 -.00000104  00000-0  16210-4 0  9991
2 49018  45.0023 294.3218 0006960  66.0749 294.0812 14.08050394 16142
NINGXIA-1 7             
1 49019U 21064B   21305.18918852  .00000054  00000-0  10822-3 0  9994
2 49019  45.0033 293.9432 0006408  76.2676 283.8843 14.08041548 16169
NINGXIA-1 8             
1 49020U 21064C   21305.17479880 -.00000191  00000-0 -34305-4 0  9995
2 49020  44.9963 293.7817 0006771  80.2961 279.8645 14.08042281 16161
NINGXIA-1 9             
1 49021U 21064D   21305.08975897 -.00000154  00000-0 -13096-4 0  9998
2 49021  45.0050 294.0862 0007192  87.5470 272.6186 14.08036164 16151
